{"spkid": "50718851", "covariance": {"epoch": "2457149.5", "data": [["2.488371725362324E-15", "-9.67066353282077E-15", "3.549310533716683E-13", "4.052252932484068E-13", "2.709883258757738E-14", "-6.941391556564829E-13"], ["-9.67066353282077E-15", "3.775010166739375E-14", "-1.419471866303738E-12", "-1.580188570509354E-12", "-1.17093921738521E-13", "2.645496355929967E-12"], ["3.549310533716683E-13", "-1.419471866303738E-12", "2.874055007601887E-10", "-5.07949467491537E-13", "1.700606222703578E-10", "-1.510173040680823E-10"], ["4.052252932484068E-13", "-1.580188570509354E-12", "-5.07949467491537E-13", "5.348284493455155E-10", "-3.816787714511555E-10", "1.919038534233456E-10"], ["2.709883258757738E-14", "-1.17093921738521E-13", "1.700606222703578E-10", "-3.816787714511555E-10", "4.858934549801133E-10", "-3.546997238676658E-10"], ["-6.941391556564829E-13", "2.645496355929967E-12", "-1.510173040680823E-10", "1.919038534233456E-10", "-3.546997238676658E-10", "2.422951267500699E-9"]], "elements": [{"label": "e", "name": "e", "sigma": 4.98835817214675e-08, "title": "eccentricity", "value": ".8040149697424377", "units": null}, {"units": "au", "value": ".7620481118275335", "title": "perihelion distance", "name": "q", "sigma": 1.94293853910498e-07, "label": "q"}, {"name": "tp", "sigma": 1.69530380982344e-05, "units": "TDB", "title": "time of perihelion passage", "value": "2457109.991285619864", "label": "tp"}, {"label": "node", "sigma": 2.31263583243345e-05, "name": "om", "value": "15.75662797231347", "title": "longitude of the ascending node", "units": "deg"}, {"sigma": 2.20429910624696e-05, "name": "w", "units": "deg", "value": "123.6482970322086", "title": "argument of perihelion", "label": "peri"}, {"label": "i", "units": "deg", "value": "28.27038053313851", "title": "inclination", "sigma": 4.92234828867351e-05, "name": "i"}], "labels": ["e", "q", "tp", "node", "peri", "i"]}, "elements": [{"sigma": "5.0538E-8", "name": "e", "units": null, "value": ".8045985428035747", "title": "eccentricity", "label": "e"}, {"title": "semi-major axis", "value": "3.879757824028725", "units": "au", "sigma": "6.3268E-8", "name": "a", "label": "a"}, {"label": "q", "sigma": "1.9689E-7", "name": "q", "value": ".7581103323844453", "title": "perihelion distance", "units": "au"}, {"units": "deg", "title": "inclination; angle with respect to x-y ecliptic plane", "value": "28.46011636273753", "sigma": "4.9198E-5", "name": "i", "label": "i"}, {"label": "node", "title": "longitude of the ascending node", "value": "15.4661578912986", "units": "deg", "sigma": "2.3171E-5", "name": "om"}, {"label": "peri", "name": "w", "sigma": "2.2242E-5", "title": "argument of perihelion", "value": "124.0317915373984", "units": "deg"}, {"name": "ma", "sigma": "1.2814E-5", "title": "mean anomaly", "value": "166.3242540651172", "units": "deg", "label": "M"}, {"sigma": "6.9886E-5", "name": "tp", "value": "2459910.889866986260", "title": "time of perihelion passage", "units": "TDB", "label": "tp"}, {"label": "period", "units": "d", "title": "sidereal orbital period", "value": "2791.292529730421", "sigma": "6.8277E-5", "name": "per"}, {"label": "n", "units": "deg/d", "value": ".1289725086731659", "title": "mean motion", "sigma": "3.1548E-9", "name": "n"}, {"units": "au", "title": "aphelion distance", "value": "7.001405315673005", "sigma": "1.1417E-7", "name": "ad", "label": "Q"}], "epoch": "2461200.5"}